start=new Date('2022-02-24T00:00:00.000Z').valueOf();
sats=[{"PERIOD":"95.593","BSTAR":"0.00003674100000","SEMIMAJOR_AXIS":"6925.381","ARG_OF_PERICENTER":"64.0469","CLASSIFICATION_TYPE":"U","REV_AT_EPOCH":"4419","PERIAPSIS":"546.085","APOAPSIS":"548.406","TLE_LINE2":"2 48468  53.0559 332.8839 0001676  64.0469 296.0692 15.06389523 44198","RCS_SIZE":"LARGE","SITE":"AFETR","RA_OF_ASC_NODE":"332.8839","MEAN_MOTION":"15.06389523","TLE_LINE1":"1 48468U 21040AS  22054.74823130  .00000266  00000-0  36741-4 0  9997","MEAN_MOTION_DDOT":"0.0000000000000","EPOCH":"2022-02-23T17:57:27.184320","MEAN_MOTION_DOT":"0.00000266","GP_ID":"196785958","ELEMENT_SET_NO":"999","MEAN_ELEMENT_THEORY":"SGP4","FILE":"3317219","INCLINATION":"53.0559","LAUNCH_DATE":"2021-05-09","ECCENTRICITY":"0.00016760","TIME_SYSTEM":"UTC","OBJECT_ID":"2021-040AS","NORAD_CAT_ID":"48468","OBJECT_NAME":"STARLINK-2685","OBJECT_TYPE":"PAYLOAD","COUNTRY_CODE":"US","EPHEMERIS_TYPE":"0","DECAY_DATE":null,"MEAN_ANOMALY":"296.0692","REF_FRAME":"TEME","CENTER_NAME":"EARTH"},{"MEAN_MOTION_DDOT":"0.0000000000000","TLE_LINE1":"1 48469U 21040AT  22054.82931376  .00000334  00000-0  41300-4 0  9992","EPOCH":"2022-02-23T19:54:12.708864","MEAN_MOTION_DOT":"0.00000334","SITE":"AFETR","RCS_SIZE":"LARGE","TLE_LINE2":"2 48469  53.0562 332.5324 0001358  88.7551 271.3593 15.06395109 44206","APOAPSIS":"548.169","MEAN_MOTION":"15.06395109","RA_OF_ASC_NODE":"332.5324","REV_AT_EPOCH":"4420","CLASSIFICATION_TYPE":"U","ARG_OF_PERICENTER":"88.7551","PERIAPSIS":"546.288","SEMIMAJOR_AXIS":"6925.364","BSTAR":"0.00004130000000","PERIOD":"95.592","MEAN_ANOMALY":"271.3593","CENTER_NAME":"EARTH","REF_FRAME":"TEME","OBJECT_NAME":"STARLINK-2661","NORAD_CAT_ID":"48469","DECAY_DATE":null,"EPHEMERIS_TYPE":"0","COUNTRY_CODE":"US","OBJECT_TYPE":"PAYLOAD","OBJECT_ID":"2021-040AT","TIME_SYSTEM":"UTC","ECCENTRICITY":"0.00013580","MEAN_ELEMENT_THEORY":"SGP4","ELEMENT_SET_NO":"999","GP_ID":"196786709","LAUNCH_DATE":"2021-05-09","INCLINATION":"53.0562","FILE":"3317219"},{"TIME_SYSTEM":"UTC","OBJECT_ID":"2021-040AU","ECCENTRICITY":"0.00019590","LAUNCH_DATE":"2021-05-09","FILE":"3317219","INCLINATION":"53.0564","GP_ID":"196785457","ELEMENT_SET_NO":"999","MEAN_ELEMENT_THEORY":"SGP4","CENTER_NAME":"EARTH","REF_FRAME":"TEME","MEAN_ANOMALY":"311.6242","DECAY_DATE":null,"COUNTRY_CODE":"US","OBJECT_TYPE":"PAYLOAD","EPHEMERIS_TYPE":"0","OBJECT_NAME":"STARLINK-2675","NORAD_CAT_ID":"48470","PERIAPSIS":"545.850","REV_AT_EPOCH":"4418","CLASSIFICATION_TYPE":"U","ARG_OF_PERICENTER":"48.4915","BSTAR":"0.00004073700000","SEMIMAJOR_AXIS":"6925.342","PERIOD":"95.592","MEAN_MOTION_DOT":"0.00000325","EPOCH":"2022-02-23T18:13:21.791136","MEAN_MOTION_DDOT":"0.0000000000000","TLE_LINE1":"1 48470U 21040AU  22054.75927999  .00000325  00000-0  40737-4 0  9995","MEAN_MOTION":"15.06402229","RA_OF_ASC_NODE":"332.8405","RCS_SIZE":"LARGE","SITE":"AFETR","APOAPSIS":"548.563","TLE_LINE2":"2 48470  53.0564 332.8405 0001959  48.4915 311.6242 15.06402229 44185"},{"PERIAPSIS":"546.042","REV_AT_EPOCH":"4418","CLASSIFICATION_TYPE":"U","ARG_OF_PERICENTER":"66.4434","SEMIMAJOR_AXIS":"6925.376","BSTAR":"0.00036178000000","PERIOD":"95.593","EPOCH":"2022-02-23T18:02:46.807296","MEAN_MOTION_DOT":"0.00005110","MEAN_MOTION_DDOT":"0.0000000000000","TLE_LINE1":"1 48471U 21040AV  22054.75193064  .00005110  00000-0  36178-3 0  9994","MEAN_MOTION":"15.06391014","RA_OF_ASC_NODE":"332.8822","SITE":"AFETR","RCS_SIZE":"LARGE","TLE_LINE2":"2 48471  53.0535 332.8822 0001731  66.4434 293.6737 15.06391014 44188","APOAPSIS":"548.440","OBJECT_ID":"2021-040AV","TIME_SYSTEM":"UTC","ECCENTRICITY":"0.00017310","LAUNCH_DATE":"2021-05-09","INCLINATION":"53.0535","FILE":"3317219","MEAN_ELEMENT_THEORY":"SGP4","GP_ID":"196785707","ELEMENT_SET_NO":"999","CENTER_NAME":"EARTH","REF_FRAME":"TEME","MEAN_ANOMALY":"293.6737","DECAY_DATE":null,"COUNTRY_CODE":"US","OBJECT_TYPE":"PAYLOAD","EPHEMERIS_TYPE":"0","OBJECT_NAME":"STARLINK-2684","NORAD_CAT_ID":"48471"},{"PERIOD":"95.592","BSTAR":"0.00020463000000","SEMIMAJOR_AXIS":"6925.331","PERIAPSIS":"546.017","ARG_OF_PERICENTER":"53.9859","CLASSIFICATION_TYPE":"U","REV_AT_EPOCH":"4413","RA_OF_ASC_NODE":"334.1416","MEAN_MOTION":"15.06405711","APOAPSIS":"548.375","TLE_LINE2":"2 48472  53.0566 334.1416 0001702  53.9859 306.1287 15.06405711 44132","RCS_SIZE":"LARGE","SITE":"AFETR","MEAN_MOTION_DOT":"0.00002768","EPOCH":"2022-02-23T11:14:02.777280","TLE_LINE1":"1 48472U 21040AW  22054.46808770  .00002768  00000-0  20463-3 0  9996","MEAN_MOTION_DDOT":"0.0000000000000","INCLINATION":"53.0566","FILE":"3316306","LAUNCH_DATE":"2021-05-09","GP_ID":"196741965","ELEMENT_SET_NO":"999","MEAN_ELEMENT_THEORY":"SGP4","ECCENTRICITY":"0.00017020","TIME_SYSTEM":"UTC","OBJECT_ID":"2021-040AW","EPHEMERIS_TYPE":"0","COUNTRY_CODE":"US","OBJECT_TYPE":"PAYLOAD","DECAY_DATE":null,"NORAD_CAT_ID":"48472","OBJECT_NAME":"STARLINK-2722","REF_FRAME":"TEME","CENTER_NAME":"EARTH","MEAN_ANOMALY":"306.1287"},{"SEMIMAJOR_AXIS":"6925.337","BSTAR":"0.00019990000000","PERIOD":"95.592","PERIAPSIS":"546.103","REV_AT_EPOCH":"4414","CLASSIFICATION_TYPE":"U","ARG_OF_PERICENTER":"59.9252","MEAN_MOTION":"15.06403625","RA_OF_ASC_NODE":"333.9918","SITE":"AFETR","RCS_SIZE":"LARGE","TLE_LINE2":"2 48473  53.0532 333.9918 0001588  59.9252 300.1894 15.06403625 44146","APOAPSIS":"548.302","MEAN_MOTION_DOT":"0.00002697","EPOCH":"2022-02-23T12:07:07.695552","MEAN_MOTION_DDOT":"0.0000000000000","TLE_LINE1":"1 48473U 21040AX  22054.50495018  .00002697  00000-0  19990-3 0  9993","LAUNCH_DATE":"2021-05-09","INCLINATION":"53.0532","FILE":"3316306","MEAN_ELEMENT_THEORY":"SGP4","GP_ID":"196742215","ELEMENT_SET_NO":"999","OBJECT_ID":"2021-040AX","TIME_SYSTEM":"UTC","ECCENTRICITY":"0.00015880","DECAY_DATE":null,"COUNTRY_CODE":"US","OBJECT_TYPE":"PAYLOAD","EPHEMERIS_TYPE":"0","OBJECT_NAME":"STARLINK-2658","NORAD_CAT_ID":"48473","CENTER_NAME":"EARTH","REF_FRAME":"TEME","MEAN_ANOMALY":"300.1894"},{"NORAD_CAT_ID":"48474","OBJECT_NAME":"STARLINK-2697","COUNTRY_CODE":"US","EPHEMERIS_TYPE":"0","OBJECT_TYPE":"PAYLOAD","DECAY_DATE":null,"MEAN_ANOMALY":"298.0751","REF_FRAME":"TEME","CENTER_NAME":"EARTH","MEAN_ELEMENT_THEORY":"SGP4","ELEMENT_SET_NO":"999","GP_ID":"196743466","FILE":"3316306","INCLINATION":"53.0555","LAUNCH_DATE":"2021-05-09","ECCENTRICITY":"0.00016300","OBJECT_ID":"2021-040AY","TIME_SYSTEM":"UTC","TLE_LINE2":"2 48474  53.0555 334.1229 0001630  62.0403 298.0751 15.06389421 44134","APOAPSIS":"548.375","SITE":"AFETR","RCS_SIZE":"LARGE","RA_OF_ASC_NODE":"334.1229","MEAN_MOTION":"15.06389421","TLE_LINE1":"1 48474U 21040AY  22054.47178269 -.00000474  00000-0 -12911-4 0  9996","MEAN_MOTION_DDOT":"0.0000000000000","EPOCH":"2022-02-23T11:19:22.024416","MEAN_MOTION_DOT":"-0.00000474","PERIOD":"95.593","SEMIMAJOR_AXIS":"6925.381","BSTAR":"-0.00001291100000","CLASSIFICATION_TYPE":"U","ARG_OF_PERICENTER":"62.0403","REV_AT_EPOCH":"4413","PERIAPSIS":"546.117"},{"MEAN_ELEMENT_THEORY":"SGP4","GP_ID":"196743217","ELEMENT_SET_NO":"999","INCLINATION":"53.0556","FILE":"3316306","LAUNCH_DATE":"2021-05-09","ECCENTRICITY":"0.00019180","OBJECT_ID":"2021-040AZ","TIME_SYSTEM":"UTC","NORAD_CAT_ID":"48475","OBJECT_NAME":"STARLINK-2619","COUNTRY_CODE":"US","OBJECT_TYPE":"PAYLOAD","EPHEMERIS_TYPE":"0","DECAY_DATE":null,"MEAN_ANOMALY":"304.7626","REF_FRAME":"TEME","CENTER_NAME":"EARTH","PERIOD":"95.592","SEMIMAJOR_AXIS":"6925.343","BSTAR":"0.00004067800000","CLASSIFICATION_TYPE":"U","ARG_OF_PERICENTER":"55.3544","REV_AT_EPOCH":"4414","PERIAPSIS":"545.879","TLE_LINE2":"2 48475  53.0556 333.9744 0001918  55.3544 304.7626 15.06401955 44149","APOAPSIS":"548.536","SITE":"AFETR","RCS_SIZE":"LARGE","RA_OF_ASC_NODE":"333.9744","MEAN_MOTION":"15.06401955","TLE_LINE1":"1 48475U 21040AZ  22054.50863809  .00000324  00000-0  40678-4 0  9995","MEAN_MOTION_DDOT":"0.0000000000000","EPOCH":"2022-02-23T12:12:26.330976","MEAN_MOTION_DOT":"0.00000324"},{"ARG_OF_PERICENTER":"74.3444","CLASSIFICATION_TYPE":"U","REV_AT_EPOCH":"4413","PERIAPSIS":"546.216","PERIOD":"95.592","SEMIMAJOR_AXIS":"6925.354","BSTAR":"0.00003747700000","TLE_LINE1":"1 48476U 21040BA  22054.46439904  .00000277  00000-0  37477-4 0  9996","MEAN_MOTION_DDOT":"0.0000000000000","EPOCH":"2022-02-23T11:08:44.077056","MEAN_MOTION_DOT":"0.00000277","TLE_LINE2":"2 48476  53.0537 334.1582 0001448  74.3444 285.7705 15.06398217 44131","APOAPSIS":"548.222","SITE":"AFETR","RCS_SIZE":"LARGE","RA_OF_ASC_NODE":"334.1582","MEAN_MOTION":"15.06398217","ECCENTRICITY":"0.00014480","OBJECT_ID":"2021-040BA","TIME_SYSTEM":"UTC","MEAN_ELEMENT_THEORY":"SGP4","GP_ID":"196742465","ELEMENT_SET_NO":"999","FILE":"3316306","INCLINATION":"53.0537","LAUNCH_DATE":"2021-05-09","MEAN_ANOMALY":"285.7705","REF_FRAME":"TEME","CENTER_NAME":"EARTH","NORAD_CAT_ID":"48476","OBJECT_NAME":"STARLINK-2723","COUNTRY_CODE":"US","OBJECT_TYPE":"PAYLOAD","EPHEMERIS_TYPE":"0","DECAY_DATE":null},{"PERIAPSIS":"546.104","REV_AT_EPOCH":"4410","CLASSIFICATION_TYPE":"U","ARG_OF_PERICENTER":"62.8331","SEMIMAJOR_AXIS":"6925.364","BSTAR":"0.00003152700000","PERIOD":"95.592","EPOCH":"2022-02-23T06:00:53.931744","MEAN_MOTION_DOT":"0.00000188","MEAN_MOTION_DDOT":"0.0000000000000","TLE_LINE1":"1 48478U 02032DG  22054.25062421  .00000188  00000-0  31527-4 0  9992","MEAN_MOTION":"15.06395092","RA_OF_ASC_NODE":"335.1345","SITE":"AFETR","RCS_SIZE":"LARGE","TLE_LINE2":"2 48478  53.0550 335.1345 0001624  62.8331 297.2823 15.06395092 44103","APOAPSIS":"548.353","OBJECT_ID":"2021-040BC","TIME_SYSTEM":"UTC","ECCENTRICITY":"0.00016240","LAUNCH_DATE":"2021-05-09","INCLINATION":"53.0550","FILE":"3316306","MEAN_ELEMENT_THEORY":"SGP4","GP_ID":"196742715","ELEMENT_SET_NO":"999","CENTER_NAME":"EARTH","REF_FRAME":"TEME","MEAN_ANOMALY":"297.2823","DECAY_DATE":null,"COUNTRY_CODE":"US","EPHEMERIS_TYPE":"0","OBJECT_TYPE":"PAYLOAD","OBJECT_NAME":"STARLINK-2728","NORAD_CAT_ID":"48478"}];
